OBJECT_NAME,OBJECT_ID,EPOCH,MEAN_MOTION,ECCENTRICITY,INCLINATION,RA_OF_ASC_NODE,ARG_OF_PERICENTER,MEAN_ANOMALY,EPHEMERIS_TYPE,CLASSIFICATION_TYPE,NORAD_CAT_ID,ELEMENT_SET_NO,REV_AT_EPOCH,BSTAR,MEAN_MOTION_DOT,MEAN_MOTION_DDOT
DUBAISAT-1,2009-041B,2026-06-15T06:10:57.028800,14.75119902,.0011695,98.0049,299.5365,79.2289,281.0236,0,U,35682,999,90481,.96758569E-4,.602E-5,0
OCEANSAT-2,2009-051A,2026-06-15T06:27:58.733856,13.99664685,.00150574,98.2324,153.3122,241.8035,118.1611,0,U,35931,999,87906,-.39281224E-4,-.95E-6,0
WORLDVIEW-2 (WV-2),2009-055A,2026-06-15T06:50:21.783840,14.37898932,.00035976,98.4737,239.7607,214.5780,145.5174,0,U,35946,999,87537,.49573803E-4,.106E-5,0
SMOS,2009-059A,2026-06-15T02:30:42.610176,14.39771605,.00013233,98.4424,353.4701,89.3240,270.8100,0,U,36036,999,87315,.80975555E-4,.21E-5,0
YAOGAN-7,2009-069A,2026-06-15T06:15:41.957856,14.78008101,.00256684,98.0075,52.1398,47.6643,312.6736,0,U,36110,999,88934,.64957547E-4,.418E-5,0
TANDEM-X,2010-030A,2026-06-14T13:22:04.319616,15.19148396,.0001853,97.4451,173.3020,84.5205,275.6241,0,U,36605,999,88624,.26723E-4,.494E-5,0
CARTOSAT-2B,2010-035A,2026-06-15T05:48:21.828384,14.78660440,.00110693,97.9957,216.8039,190.0607,170.0384,0,U,36795,999,85956,.13520474E-3,.939E-5,0
YAOGAN-10,2010-038A,2026-06-15T08:03:28.552032,14.85344560,.00016903,97.8974,189.7547,85.4400,5.3388,0,U,36834,999,85693,.16041762E-3,.1326E-4,0
COSMO-SKYMED 4,2010-060A,2026-06-15T06:48:07.061184,14.82153652,.00014323,97.8880,349.9107,82.4670,277.6706,0,U,37216,999,84428,.97012331E-4,.72E-5,0
RESOURCESAT-2,2011-015A,2026-06-15T06:13:02.796960,14.21605992,.0010167,98.7644,233.7141,261.6726,98.3298,0,U,37387,999,78590,.45425175E-4,.55E-6,0
HAIYANG-2A,2011-043A,2026-06-15T06:59:22.958880,13.74458842,.00062204,99.3388,169.0091,93.7015,266.4846,0,U,37781,999,74639,.34053037E-4,-.11E-6,0
RASAT,2011-044D,2026-06-15T06:33:56.678688,14.68165069,.00200336,98.0580,257.6992,194.9757,249.7734,0,U,37791,999,79290,.93204154E-4,.488E-5,0
SRMSAT,2011-058D,2026-06-15T02:14:35.216160,14.11575160,.00118389,19.9720,72.1399,180.5594,207.7984,0,U,37841,999,75752,.49298812E-4,.356E-5,0
PLEIADES 1A,2011-076F,2026-06-15T06:41:44.661696,14.58569917,.0001623,98.1982,241.4072,97.5022,353.5063,0,U,38012,999,77171,.58262624E-4,.225E-5,0
ZIYUAN 1-02C (ZY 1-02C),2011-079A,2026-06-15T08:04:11.890272,14.38213025,.00056075,98.4079,233.6832,323.2334,98.3772,0,U,38038,999,75894,.86063303E-4,.218E-5,0
ARIRANG-3 (KOMPSAT-3),2012-025B,2026-06-15T07:43:36.022080,14.62204646,.00066156,98.1176,123.8140,114.0871,246.1024,0,U,38338,999,75107,.78984593E-4,.351E-5,0
EXACTVIEW-1 (ADS-1B),2012-039C,2026-06-15T06:35:39.904224,14.24984022,.00110583,98.9775,283.6218,171.7884,188.3478,0,U,38709,999,72243,.55526605E-4,.83E-6,0
SPOT 6,2012-047A,2026-06-15T06:38:52.221120,14.58561535,.0001489,98.2126,233.6081,92.9475,267.1895,0,U,38755,999,73277,.3009597E-4,.94E-6,0
PLEIADES 1B,2012-068A,2026-06-15T07:06:06.444288,14.58559314,.00016446,98.1952,241.3733,92.8297,267.3090,0,U,39019,999,72057,.46135228E-4,.169E-5,0
GOKTURK 2,2012-073A,2026-06-15T05:59:46.324608,14.75541727,.00016643,97.6816,3.7788,57.9045,302.2327,0,U,39030,999,72422,.1008899E-3,.64E-5,0
LANDSAT 8,2013-008A,2026-06-15T05:44:35.963232,14.57093270,.00013574,98.2302,236.3976,93.6423,266.4931,0,U,39084,999,69761,.69636949E-4,.268E-5,0
SARAL,2013-009A,2026-06-15T07:05:00.538368,14.32855494,.0000801,98.5555,352.8864,321.5735,38.5392,0,U,39086,999,69533,.42703763E-4,.73E-6,0
GAOFEN-1,2013-018A,2026-06-15T07:13:31.496736,14.76535588,.00157179,97.9101,238.4070,273.0918,86.8494,0,U,39150,999,70796,.11078013E-3,.723E-5,0
VNREDSAT 1,2013-021B,2026-06-15T05:52:24.146688,14.64854765,.00017152,97.9085,219.7357,89.6977,270.4423,0,U,39160,999,70000,.73853326E-4,.349E-5,0
ARIRANG-5 (KOMPSAT-5),2013-042A,2026-06-15T07:17:31.769952,15.04485973,.00052476,97.6204,353.0310,124.5693,235.6029,0,U,39227,999,70357,.75665147E-4,.998E-5,0
SKYSAT-A,2013-066C,2026-06-15T03:22:57.939168,15.12966701,.00202595,97.3815,215.6034,324.9859,35.0039,0,U,39418,999,68817,.16874201E-3,.2926E-4,0
DUBAISAT-2,2013-066D,2026-06-15T06:45:47.043936,15.10170953,.00125931,97.4559,156.4754,47.1244,313.1041,0,U,39419,999,68610,.18549516E-3,.297E-4,0
GPM-CORE,2014-009C,2026-06-15T06:24:26.392896,15.44534152,.00119382,64.9724,314.5573,250.8284,109.1565,0,U,39574,999,69751,.21029695E-3,.9595E-4,0
SENTINEL-1A,2014-016A,2026-06-15T05:48:09.993312,14.59198028,.00014319,98.1774,173.8027,82.4007,277.7355,0,U,39634,999,64973,-.60069394E-4,-.329E-5,0
KAZEOSAT 1,2014-024A,2026-06-15T06:53:23.535744,14.42079233,.00013735,98.3211,238.7813,74.1098,286.0243,0,U,39731,999,63828,.44710963E-4,.104E-5,0
