DUBAISAT-1              
1 35682U 09041B   26166.25760450  .00000602  00000+0  96759-4 0  9995
2 35682  98.0049 299.5365 0011695  79.2289 281.0236 14.75119902904817
OCEANSAT-2              
1 35931U 09051A   26166.26942979 -.00000095  00000+0 -39281-4 0  9997
2 35931  98.2324 153.3122 0015057 241.8035 118.1611 13.99664685879065
WORLDVIEW-2 (WV-2)      
1 35946U 09055A   26166.28497435  .00000106  00000+0  49574-4 0  9998
2 35946  98.4737 239.7607 0003597 214.5780 145.5174 14.37898932875373
SMOS                    
1 36036U 09059A   26166.10465984  .00000210  00000+0  80976-4 0  9995
2 36036  98.4424 353.4701 0001323  89.3240 270.8100 14.39771605873154
YAOGAN-7                
1 36110U 09069A   26166.26090229  .00000418  00000+0  64958-4 0  9994
2 36110  98.0075  52.1398 0025668  47.6643 312.6736 14.78008101889347
TANDEM-X                
1 36605U 10030A   26165.55699444  .00000494  00000+0  26723-4 0  9990
2 36605  97.4451 173.3020 0001853  84.5205 275.6241 15.19148396886241
CARTOSAT-2B             
1 36795U 10035A   26166.24191931  .00000939  00000+0  13520-3 0  9994
2 36795  97.9957 216.8039 0011069 190.0607 170.0384 14.78660440859563
YAOGAN-10               
1 36834U 10038A   26166.33574713  .00001326  00000+0  16042-3 0  9997
2 36834  97.8974 189.7547 0001690  85.4400   5.3388 14.85344560856936
COSMO-SKYMED 4          
1 37216U 10060A   26166.28341506  .00000720  00000+0  97012-4 0  9997
2 37216  97.8880 349.9107 0001432  82.4670 277.6706 14.82153652844289
RESOURCESAT-2           
1 37387U 11015A   26166.25906015  .00000055  00000+0  45425-4 0  9998
2 37387  98.7644 233.7141 0010167 261.6726  98.3298 14.21605992785901
HAIYANG-2A              
1 37781U 11043A   26166.29123795 -.00000011  00000+0  34053-4 0  9995
2 37781  99.3388 169.0091 0006220  93.7015 266.4846 13.74458842746390
RASAT                   
1 37791U 11044D   26166.27357267  .00000488  00000+0  93204-4 0  9998
2 37791  98.0580 257.6992 0020033 194.9757 249.7734 14.68165069792908
SRMSAT                  
1 37841U 11058D   26166.09346315  .00000356  00000+0  49299-4 0  9990
2 37841  19.9720  72.1399 0011838 180.5594 207.7984 14.11575160757521
PLEIADES 1A             
1 38012U 11076F   26166.27898914  .00000225  00000+0  58263-4 0  9994
2 38012  98.1982 241.4072 0001623  97.5022 353.5063 14.58569917771713
ZIYUAN 1-02C (ZY 1-02C) 
1 38038U 11079A   26166.33624873  .00000218  00000+0  86063-4 0  9994
2 38038  98.4079 233.6832 0005607 323.2334  98.3772 14.38213025758944
ARIRANG-3 (KOMPSAT-3)   
1 38338U 12025B   26166.32194470  .00000351  00000+0  78985-4 0  9995
2 38338  98.1176 123.8140 0006615 114.0871 246.1024 14.62204646751072
EXACTVIEW-1 (ADS-1B)    
1 38709U 12039C   26166.27476741  .00000083  00000+0  55527-4 0  9999
2 38709  98.9775 283.6218 0011058 171.7884 188.3478 14.24984022722438
SPOT 6                  
1 38755U 12047A   26166.27699330  .00000094  00000+0  30096-4 0  9996
2 38755  98.2126 233.6081 0001489  92.9475 267.1895 14.58561535732776
PLEIADES 1B             
1 39019U 12068A   26166.29590792  .00000169  00000+0  46135-4 0  9991
2 39019  98.1952 241.3733 0001644  92.8297 267.3090 14.58559314720576
GOKTURK 2               
1 39030U 12073A   26166.24984172  .00000640  00000+0  10089-3 0  9996
2 39030  97.6816   3.7788 0001664  57.9045 302.2327 14.75541727724223
LANDSAT 8               
1 39084U 13008A   26166.23930513  .00000268  00000+0  69637-4 0  9993
2 39084  98.2302 236.3976 0001357  93.6423 266.4931 14.57093270697617
SARAL                   
1 39086U 13009A   26166.29514512  .00000073  00000+0  42704-4 0  9999
2 39086  98.5555 352.8864 0000801 321.5735  38.5392 14.32855494695337
GAOFEN-1                
1 39150U 13018A   26166.30105899  .00000723  00000+0  11078-3 0  9998
2 39150  97.9101 238.4070 0015717 273.0918  86.8494 14.76535588707962
VNREDSAT 1              
1 39160U 13021B   26166.24472392  .00000349  00000+0  73853-4 0  9995
2 39160  97.9085 219.7357 0001715  89.6977 270.4423 14.64854765700002
ARIRANG-5 (KOMPSAT-5)   
1 39227U 13042A   26166.30383993  .00000998  00000+0  75665-4 0  9990
2 39227  97.6204 353.0310 0005247 124.5693 235.6029 15.04485973703571
SKYSAT-A                
1 39418U 13066C   26166.14094837  .00002926  00000+0  16874-3 0  9995
2 39418  97.3815 215.6034 0020259 324.9859  35.0039 15.12966701688177
DUBAISAT-2              
1 39419U 13066D   26166.28179449  .00002970  00000+0  18550-3 0  9996
2 39419  97.4559 156.4754 0012593  47.1244 313.1041 15.10170953686107
GPM-CORE                
1 39574U 14009C   26166.26697214  .00009595  00000+0  21030-3 0  9996
2 39574  64.9724 314.5573 0011938 250.8284 109.1565 15.44534152697510
SENTINEL-1A             
1 39634U 14016A   26166.24178233 -.00000329  00000+0 -60069-4 0  9998
2 39634  98.1774 173.8027 0001431  82.4007 277.7355 14.59198028649733
KAZEOSAT 1              
1 39731U 14024A   26166.28707796  .00000104  00000+0  44711-4 0  9996
2 39731  98.3211 238.7813 0001373  74.1098 286.0243 14.42079233638281
